NORAD_CAT_ID,OBJECT_NAME,OBJECT_TYPE,EPOCH,MEAN_MOTION,ECCENTRICITY,INCLINATION,RA_OF_ASC_NODE,ARG_OF_PERICENTER,MEAN_ANOMALY,BSTAR,MEAN_MOTION_DOT,MEAN_MOTION_DDOT,TLE_LINE0,TLE_LINE1,TLE_LINE2,SEMIMAJOR_AXIS,PERIOD,APOGEE,PERIGEE,DECAYED
53532.0,STARLINK-4483,PAYLOAD,2024-04-08 23:24:23,15.08846307,0.0001365,53.2187,335.2629,91.175,268.9398,0.00016191,2.29e-05,0.0,0 STARLINK-4483,1 53532U 22101F   24099.97526755  .00002290  00000-0  16191-3 0  9998,2 53532  53.2187 335.2629 0001365  91.1750 268.9398 15.08846307 90538,6917.861,95.437,540.67,538.782,0.0
53532.0,STARLINK-4483,PAYLOAD,2024-04-09 00:59:46,15.08848047,0.0001374,53.2188,334.9653,91.3928,268.7222,0.00017766,2.541e-05,0.0,0 STARLINK-4483,1 53532U 22101F   24100.04150619  .00002541  00000-0  17766-3 0  9999,2 53532  53.2188 334.9653 0001374  91.3928 268.7222 15.08848047 90549,6917.856,95.437,540.671,538.77,0.0
53532.0,STARLINK-4483,PAYLOAD,2024-04-09 08:56:42,15.08839069,0.0001421,53.2183,333.4785,84.8853,275.2302,8.6249e-05,1.085e-05,0.0,0 STARLINK-4483,1 53532U 22101F   24100.37271466  .00001085  00000-0  86249-4 0  9994,2 53532  53.2183 333.4785 0001421  84.8853 275.2302 15.08839069 90592,6917.883,95.438,540.731,538.765,0.0
53532.0,STARLINK-4483,PAYLOAD,2024-04-09 21:39:47,15.08838491,0.0001425,53.2181,331.0995,85.7819,274.3336,8.9647e-05,1.139e-05,0.0,0 STARLINK-4483,1 53532U 22101F   24100.90263607  .00001139  00000-0  89647-4 0  9996,2 53532  53.2181 331.0995 0001425  85.7819 274.3336 15.08838491 90677,6917.885,95.438,540.736,538.764,0.0
53532.0,STARLINK-4483,PAYLOAD,2024-04-10 08:47:29,15.08840975,0.0001404,53.2173,329.0179,85.4975,274.6177,7.7724e-05,9.49e-06,0.0,0 STARLINK-4483,1 53532U 22101F   24101.36631425  .00000949  00000-0  77724-4 0  9995,2 53532  53.2173 329.0179 0001404  85.4975 274.6177 15.08840975 90740,6917.877,95.437,540.714,538.771,0.0
53532.0,STARLINK-4483,PAYLOAD,2024-04-10 21:30:34,15.08846692,0.0001321,53.2179,326.637,92.8837,267.2306,0.00015115,2.119e-05,0.0,0 STARLINK-4483,1 53532U 22101F   24101.89623048  .00002119  00000-0  15115-3 0  9991,2 53532  53.2179 326.6370 0001321  92.8837 267.2306 15.08846692 90822,6917.86,95.437,540.639,538.811,0.0
53532.0,STARLINK-4483,PAYLOAD,2024-04-11 00:41:20,15.08840819,0.0001453,53.2181,326.042,94.8655,265.2503,0.00034756,5.248e-05,0.0,0 STARLINK-4483,1 53532U 22101F   24102.02871349  .00005248  00000-0  34756-3 0  9994,2 53532  53.2181 326.0420 0001453  94.8655 265.2503 15.08840819 90845,6917.878,95.438,540.748,538.738,0.0
53532.0,STARLINK-4483,PAYLOAD,2024-04-11 21:21:21,15.08840454,0.0001358,53.2171,322.1764,91.9928,268.122,0.0001283,1.755e-05,0.0,0 STARLINK-4483,1 53532U 22101F   24102.88983418  .00001755  00000-0  12830-3 0  9997,2 53532  53.2171 322.1764 0001358  91.9928 268.1220 15.08840454 90974,6917.879,95.438,540.683,538.805,0.0
53532.0,STARLINK-4483,PAYLOAD,2024-04-13 19:27:32,15.0883851,0.0001322,53.2177,313.5549,108.4027,251.7109,2.2517e-05,7e-07,0.0,0 STARLINK-4483,1 53532U 22101F   24104.81079424  .00000070  00000-0  22517-4 0  9998,2 53532  53.2177 313.5549 0001322 108.4027 251.7109 15.08838510 91267,6917.885,95.438,540.664,538.835,0.0
53532.0,STARLINK-4483,PAYLOAD,2024-04-14 20:53:42,15.08834044,0.0001221,53.2173,308.7931,64.6305,295.4813,0.00035785,5.411e-05,0.0,0 STARLINK-4483,1 53532U 22101F   24105.87063133  .00005411  00000-0  35785-3 0  9999,2 53532  53.2173 308.7931 0001221  64.6305 295.4813 15.08834044 91427,6917.899,95.438,540.608,538.919,0.0
53532.0,STARLINK-4483,PAYLOAD,2024-04-15 12:47:34,15.0883298,0.0001542,53.2178,305.8268,59.9113,300.2032,0.00060374,9.332e-05,0.0,0 STARLINK-4483,1 53532U 22101F   24106.53304337  .00009332  00000-0  60374-3 0  9995,2 53532  53.2178 305.8268 0001542  59.9113 300.2032 15.08832980 91529,6917.902,95.438,540.834,538.7,0.0
53532.0,STARLINK-4483,PAYLOAD,2024-04-15 20:44:30,15.0884333,0.00013,53.2169,304.3394,66.9909,293.122,0.00035393,5.35e-05,0.0,0 STARLINK-4483,1 53532U 22101F   24106.86423875  .00005350  00000-0  35393-3 0  9999,2 53532  53.2169 304.3394 0001300  66.9909 293.1220 15.08843330 91571,6917.87,95.437,540.635,538.836,0.0
53532.0,STARLINK-4483,PAYLOAD,2024-04-16 06:16:49,15.08844973,0.0001537,53.2156,302.5556,62.0113,298.1035,0.00019714,2.851e-05,0.0,0 STARLINK-4483,1 53532U 22101F   24107.26167829  .00002851  00000-0  19714-3 0  9990,2 53532  53.2156 302.5556 0001537  62.0113 298.1035 15.08844973 91633,6917.865,95.437,540.793,538.667,0.0
53532.0,STARLINK-4483,PAYLOAD,2024-04-16 20:35:16,15.08861428,0.0001061,53.2161,299.877,84.46,275.6513,0.000273,4.062e-05,0.0,0 STARLINK-4483,1 53532U 22101F   24107.85782698  .00004062  00000-0  27300-3 0  9998,2 53532  53.2161 299.8770 0001061  84.4600 275.6513 15.08861428 91721,6917.815,95.436,540.414,538.946,0.0
53532.0,STARLINK-4483,PAYLOAD,2024-04-17 18:50:41,15.08832161,0.0001708,53.2165,295.7167,60.7844,299.3319,-3.2222e-05,-8.01e-06,0.0,0 STARLINK-4483,1 53532U 22101F   24108.78520754 -.00000801  00000-0 -32222-4 0  9993,2 53532  53.2165 295.7167 0001708  60.7844 299.3319 15.08832161 91869,6917.904,95.438,540.951,538.588,0.0
53532.0,STARLINK-4483,PAYLOAD,2024-04-18 12:19:56,15.08839198,0.0001372,53.2168,292.4406,70.9088,289.2053,0.00016423,2.327e-05,0.0,0 STARLINK-4483,1 53532U 22101F   24109.51384577  .00002327  00000-0  16423-3 0  9993,2 53532  53.2168 292.4406 0001372  70.9088 289.2053 15.08839198 91974,6917.883,95.438,540.697,538.799,0.0
53532.0,STARLINK-4483,PAYLOAD,2024-04-18 18:41:28,15.08850918,0.0001413,53.2174,291.2551,95.0739,265.0415,0.00035019,5.291e-05,0.0,0 STARLINK-4483,1 53532U 22101F   24109.77880165  .00005291  00000-0  35019-3 0  9990,2 53532  53.2174 291.2551 0001413  95.0739 265.0415 15.08850918 92019,6917.847,95.437,540.69,538.735,0.0
53532.0,STARLINK-4483,PAYLOAD,2024-04-19 12:10:43,15.08846541,0.0001569,53.2174,287.985,76.4894,283.6272,0.00029562,4.421e-05,0.0,0 STARLINK-4483,1 53532U 22101F   24110.50744437  .00004421  00000-0  29562-3 0  9994,2 53532  53.2174 287.9850 0001569  76.4894 283.6272 15.08846541 92126,6917.86,95.437,540.811,538.64,0.0
53532.0,STARLINK-4483,PAYLOAD,2024-04-19 18:32:15,15.08856525,0.0001545,53.2175,286.7935,94.7452,265.3717,0.00048872,7.502e-05,0.0,0 STARLINK-4483,1 53532U 22101F   24110.77239949  .00007502  00000-0  48872-3 0  9998,2 53532  53.2175 286.7935 0001545  94.7452 265.3717 15.08856525 92163,6917.83,95.437,540.764,538.626,0.0
53532.0,STARLINK-4483,PAYLOAD,2024-04-20 12:01:29,15.08850977,0.0001267,53.2168,283.5182,94.2614,265.8523,0.00032214,4.844e-05,0.0,0 STARLINK-4483,1 53532U 22101F   24111.50103553  .00004844  00000-0  32214-3 0  9990,2 53532  53.2168 283.5182 0001267  94.2614 265.8523 15.08850977 92277,6917.847,95.437,540.588,538.835,0.0
53532.0,STARLINK-4483,PAYLOAD,2024-04-20 16:47:38,15.08858996,0.0001611,53.2176,282.6271,100.0762,260.0412,0.00049791,7.649e-05,0.0,0 STARLINK-4483,1 53532U 22101F   24111.69975381  .00007649  00000-0  49791-3 0  9990,2 53532  53.2176 282.6271 0001611 100.0762 260.0412 15.08858996 92305,6917.822,95.436,540.802,538.573,0.0
53532.0,STARLINK-4483,PAYLOAD,2024-04-21 16:38:25,15.08841723,0.0001713,53.217,278.1656,120.8463,239.2698,0.00048993,7.518e-05,0.0,0 STARLINK-4483,1 53532U 22101F   24112.69335627  .00007518  00000-0  48993-3 0  9992,2 53532  53.2170 278.1656 0001713 120.8463 239.2698 15.08841723 92457,6917.875,95.437,540.925,538.555,0.0
53532.0,STARLINK-4483,PAYLOAD,2024-04-22 10:07:41,15.08832174,0.0001475,53.2172,274.8994,113.1437,246.9711,0.00033399,5.03e-05,0.0,0 STARLINK-4483,1 53532U 22101F   24113.42200343  .00005030  00000-0  33399-3 0  9991,2 53532  53.2172 274.8994 0001475 113.1437 246.9711 15.08832174 92561,6917.904,95.438,540.79,538.749,0.0
53532.0,STARLINK-4483,PAYLOAD,2024-04-22 18:04:37,15.08834353,0.0001658,53.217,273.4089,60.7686,299.3472,6.9699e-05,8.21e-06,0.0,0 STARLINK-4483,1 53532U 22101F   24113.75320616  .00000821  00000-0  69699-4 0  9999,2 53532  53.2170 273.4089 0001658  60.7686 299.3472 15.08834353 92618,6917.898,95.438,540.91,538.616,0.0
53532.0,STARLINK-4483,PAYLOAD,2024-04-23 11:33:52,15.08827115,0.0001233,53.217,270.1393,87.2569,272.8565,0.00012284,1.667e-05,0.0,0 STARLINK-4483,1 53532U 22101F   24114.48185599  .00001667  00000-0  12284-3 0  9995,2 53532  53.2170 270.1393 0001233  87.2569 272.8565 15.08827115 92722,6917.92,95.438,540.638,538.932,0.0
53532.0,STARLINK-4483,PAYLOAD,2024-04-23 14:44:38,15.08832706,0.000174,53.2177,269.5449,100.7778,259.341,0.00017879,2.558e-05,0.0,0 STARLINK-4483,1 53532U 22101F   24114.61433401  .00002558  00000-0  17879-3 0  9993,2 53532  53.2177 269.5449 0001740 100.7778 259.3410 15.08832706 92742,6917.903,95.438,540.971,538.564,0.0
53532.0,STARLINK-4483,PAYLOAD,2024-04-23 17:55:24,15.08843045,0.0001315,53.2162,268.9487,85.3051,274.8091,0.0003633,5.499e-05,0.0,0 STARLINK-4483,1 53532U 22101F   24114.74681174  .00005499  00000-0  36330-3 0  9999,2 53532  53.2162 268.9487 0001315  85.3051 274.8091 15.08843045 92768,6917.871,95.437,540.646,538.826,0.0
53532.0,STARLINK-4483,PAYLOAD,2024-04-24 16:10:49,15.08841795,0.0002162,53.2172,264.7848,50.3376,309.7806,0.00026767,3.975e-05,0.0,0 STARLINK-4483,1 53532U 22101F   24115.67417852  .00003975  00000-0  26767-3 0  9992,2 53532  53.2172 264.7848 0002162  50.3376 309.7806 15.08841795 92905,6917.875,95.437,541.236,538.244,0.0
53532.0,STARLINK-4483,PAYLOAD,2024-04-25 14:26:13,15.08841338,0.0003451,53.2168,260.6254,24.5307,335.5849,0.0002229,3.261e-05,0.0,0 STARLINK-4483,1 53532U 22101F   24116.60154497  .00003261  00000-0  22290-3 0  9994,2 53532  53.2168 260.6254 0003451  24.5307 335.5849 15.08841338 93048,6917.876,95.437,542.129,537.354,0.0
53532.0,STARLINK-4483,PAYLOAD,2024-04-25 16:01:36,15.08841974,0.0003409,53.2167,260.328,25.9851,334.1311,0.00021913,3.201e-05,0.0,0 STARLINK-4483,1 53532U 22101F   24116.66778454  .00003201  00000-0  21913-3 0  9990,2 53532  53.2167 260.3280 0003409  25.9851 334.1311 15.08841974 93051,6917.874,95.437,542.098,537.381,0.0
